{"spkid": "54354410", "covariance": {"labels": ["e", "q", "tp", "node", "peri", "i"], "data": [["1.535576815804889E-12", "-2.481791744810168E-12", "5.54707560319607E-10", "1.821163261444416E-10", "-7.99056953184595E-11", "-1.499195325151324E-10"], ["-2.481791744810168E-12", "4.018598537126774E-12", "-8.26066043393261E-10", "-2.890552975344992E-10", "1.434029537257999E-10", "2.360084335901435E-10"], ["5.54707560319607E-10", "-8.26066043393261E-10", "8.638248405775458E-7", "1.164150271442134E-7", "1.048518759508454E-7", "-1.142144743715946E-7"], ["1.821163261444416E-10", "-2.890552975344992E-10", "1.164150271442134E-7", "3.248827249024231E-8", "-4.858583651047015E-9", "-2.825102850125727E-8"], ["-7.99056953184595E-11", "1.434029537257999E-10", "1.048518759508454E-7", "-4.858583651047015E-9", "3.568246373464641E-8", "3.681361182359097E-10"], ["-1.499195325151324E-10", "2.360084335901435E-10", "-1.142144743715946E-7", "-2.825102850125727E-8", "3.681361182359097E-10", "2.54380709583275E-8"]], "elements": [{"label": "e", "name": "e", "sigma": 1.23918393138585e-06, "title": "eccentricity", "value": ".4017550748885984", "units": null}, {"sigma": 2.00464424203567e-06, "name": "q", "value": ".98364028817404", "title": "perihelion distance", "units": "au", "label": "q"}, {"name": "tp", "sigma": 0.000929421777546419, "title": "time of perihelion passage", "value": "2459772.887877678920", "units": "TDB", "label": "tp"}, {"sigma": 0.000180245034578604, "name": "om", "units": "deg", "value": "53.82863491497166", "title": "longitude of the ascending node", "label": "node"}, {"units": "deg", "title": "argument of perihelion", "value": "349.3284650756269", "name": "w", "sigma": 0.000188898024697577, "label": "peri"}, {"label": "i", "name": "i", "sigma": 0.000159493169002085, "units": "deg", "title": "inclination", "value": "36.84092379786306"}], "epoch": "2459834.5"}, "elements": [{"units": null, "title": "eccentricity", "value": ".4016327853007891", "sigma": "1.2391E-6", "name": "e", "label": "e"}, {"sigma": "1.5644E-7", "name": "a", "value": "1.644326761278911", "title": "semi-major axis", "units": "au", "label": "a"}, {"label": "q", "title": "perihelion distance", "value": ".9839112242018366", "units": "au", "sigma": "2.0043E-6", "name": "q"}, {"value": "36.83855344444706", "title": "inclination; angle with respect to x-y ecliptic plane", "units": "deg", "sigma": ".00015946", "name": "i", "label": "i"}, {"label": "node", "units": "deg", "title": "longitude of the ascending node", "value": "53.82213260554191", "name": "om", "sigma": ".00018025"}, {"label": "peri", "sigma": ".00018899", "name": "w", "units": "deg", "title": "argument of perihelion", "value": "349.3696205708628"}, {"label": "M", "units": "deg", "title": "mean anomaly", "value": "307.2997380801431", "name": "ma", "sigma": ".00052879"}, {"label": "tp", "name": "tp", "sigma": ".0011472", "units": "TDB", "value": "2461313.243337567108", "title": "time of perihelion passage"}, {"name": "per", "sigma": ".00010991", "title": "sidereal orbital period", "value": "770.1593890725225", "units": "d", "label": "period"}, {"sigma": "6.6708E-8", "name": "n", "title": "mean motion", "value": ".4674357089037584", "units": "deg/d", "label": "n"}, {"name": "ad", "sigma": "2.1927E-7", "value": "2.304742298355986", "title": "aphelion distance", "units": "au", "label": "Q"}], "epoch": "2461200.5"}